ONEWEB-0377             
1 49303U 21090AA  23265.54810507  .00000042  00000+0  72421-4 0  9994
2 49303  87.9158 113.2726 0001746  74.2164 285.9162 13.20770821 98699
ONEWEB-0378             
1 49304U 21090AB  23265.51126756  .00000037  00000+0  58862-4 0  9995
2 49304  87.9170 113.2753 0001712  95.2236 264.9093 13.20771507 97950
ONEWEB-0379             
1 49305U 21090AC  23265.67567032 -.00002441  00000+0 -66195-2 0  9998
2 49305  87.8982 128.4811 0002139  79.3005 280.8365 13.14514450 97689
ONEWEB-0380             
1 49306U 21090AD  23265.22304921  .00000079  00000+0  16582-3 0  9995
2 49306  87.9246 143.7916 0001692  72.9507 287.1811 13.19726206 94669
ONEWEB-0381             
1 49307U 21090AE  23265.60912286  .00000086  00000+0  17896-3 0  9994
2 49307  87.9219 113.2052 0001617  80.4790 279.6526 13.20770559 98012
ONEWEB-0382             
1 49308U 21090AF  23265.52071945  .00000089  00000+0  18692-3 0  9992
2 49308  87.9157 113.2758 0001462  96.8308 263.2992 13.20771117 97994
ONEWEB-0383             
1 49309U 21090AG  23265.51708257  .00000050  00000+0  10090-3 0  9997
2 49309  87.8991 128.4955 0001757  87.2007 272.9324 13.14505941 96396
ONEWEB-0384             
1 49310U 21090AH  23265.66804343  .00000058  00000+0  11091-3 0  9998
2 49310  87.9169 113.2440 0001414 106.4363 253.6926 13.20771117 99334
